COSMOS 2407             
1 28380U 04028A   26116.53427832  .00000082  00000+0  68035-4 0  9990
2 28380  82.9568 113.0920 0040170  38.6039  77.5298 13.76330041 92779
COSMOS 2414             
1 28521U 05002A   26116.84750494  .00000088  00000+0  60109-4 0  9997
2 28521  82.9475  82.4777 0041418 114.8234 245.7245 13.87920669 76699
COSMOS 2463             
1 36519U 10017A   26116.84725544  .00000064  00000+0  54962-4 0  9997
2 36519  82.9571 287.4353 0034792 272.6182 200.5379 13.71662180800899
