[{"OBJECT_NAME":"COSMOS 2407","OBJECT_ID":"2004-028A","EPOCH":"2026-04-26T12:49:21.646848","MEAN_MOTION":13.76330041,"ECCENTRICITY":0.004017,"INCLINATION":82.9568,"RA_OF_ASC_NODE":113.092,"ARG_OF_PERICENTER":38.6039,"MEAN_ANOMALY":77.5298,"EPHEMERIS_TYPE":0,"CLASSIFICATION_TYPE":"U","NORAD_CAT_ID":28380,"ELEMENT_SET_NO":999,"REV_AT_EPOCH":9277,"BSTAR":6.8035e-5,"MEAN_MOTION_DOT":8.2e-7,"MEAN_MOTION_DDOT":0},{"OBJECT_NAME":"COSMOS 2414","OBJECT_ID":"2005-002A","EPOCH":"2026-04-26T20:20:24.426816","MEAN_MOTION":13.87920669,"ECCENTRICITY":0.0041418,"INCLINATION":82.9475,"RA_OF_ASC_NODE":82.4777,"ARG_OF_PERICENTER":114.8234,"MEAN_ANOMALY":245.7245,"EPHEMERIS_TYPE":0,"CLASSIFICATION_TYPE":"U","NORAD_CAT_ID":28521,"ELEMENT_SET_NO":999,"REV_AT_EPOCH":7669,"BSTAR":6.0109e-5,"MEAN_MOTION_DOT":8.8e-7,"MEAN_MOTION_DDOT":0},{"OBJECT_NAME":"COSMOS 2463","OBJECT_ID":"2010-017A","EPOCH":"2026-04-26T20:20:02.870016","MEAN_MOTION":13.7166218,"ECCENTRICITY":0.0034792,"INCLINATION":82.9571,"RA_OF_ASC_NODE":287.4353,"ARG_OF_PERICENTER":272.6182,"MEAN_ANOMALY":200.5379,"EPHEMERIS_TYPE":0,"CLASSIFICATION_TYPE":"U","NORAD_CAT_ID":36519,"ELEMENT_SET_NO":999,"REV_AT_EPOCH":80089,"BSTAR":5.4962e-5,"MEAN_MOTION_DOT":6.4e-7,"MEAN_MOTION_DDOT":0}]
